{
  "type": "FeatureCollection",
  "features": [
    {
      "type": "Feature",
      "id": "osm-way-52057922",
      "properties": {
        "id": "osm-way-52057922",
        "water_type": "water",
        "name": "Lotus Pond",
        "source": "OpenStreetMap"
      },
      "geometry": {
        "type": "Polygon",
        "coordinates": [
          [
            [
              77.5959612,
              12.9774853
            ],
            [
              77.5958136,
              12.9773346
            ],
            [
              77.5958065,
              12.9771496
            ],
            [
              77.5959823,
              12.9769783
            ],
            [
              77.5964077,
              12.9769259
            ],
            [
              77.5966932,
              12.9769413
            ],
            [
              77.5968264,
              12.9770585
            ],
            [
              77.5971636,
              12.9771153
            ],
            [
              77.5971606,
              12.9772341
            ],
            [
              77.5971288,
              12.9773327
            ],
            [
              77.597032,
              12.9773915
            ],
            [
              77.5968588,
              12.9773641
            ],
            [
              77.5966735,
              12.9773248
            ],
            [
              77.5965284,
              12.9773488
            ],
            [
              77.5962857,
              12.9774502
            ],
            [
              77.5961018,
              12.9775264
            ],
            [
              77.5959612,
              12.9774853
            ]
          ]
        ]
      }
    },
    {
      "type": "Feature",
      "id": "osm-way-52059617",
      "properties": {
        "id": "osm-way-52059617",
        "water_type": "water",
        "name": "Sampangi Lake",
        "source": "OpenStreetMap"
      },
      "geometry": {
        "type": "Polygon",
        "coordinates": [
          [
            [
              77.5900461,
              12.9684867
            ],
            [
              77.5900803,
              12.9681089
            ],
            [
              77.5905074,
              12.9681467
            ],
            [
              77.5904731,
              12.9685246
            ],
            [
              77.5900461,
              12.9684867
            ]
          ]
        ]
      }
    },
    {
      "type": "Feature",
      "id": "osm-way-363474992",
      "properties": {
        "id": "osm-way-363474992",
        "water_type": "water",
        "name": null,
        "source": "OpenStreetMap"
      },
      "geometry": {
        "type": "Polygon",
        "coordinates": [
          [
            [
              77.5913499,
              12.9794024
            ],
            [
              77.5913411,
              12.9794123
            ],
            [
              77.5913369,
              12.9794246
            ],
            [
              77.5913378,
              12.9794377
            ],
            [
              77.5913437,
              12.9794494
            ],
            [
              77.5913538,
              12.9794579
            ],
            [
              77.5913665,
              12.9794621
            ],
            [
              77.5913799,
              12.9794612
            ],
            [
              77.5913919,
              12.9794554
            ],
            [
              77.5914007,
              12.9794455
            ],
            [
              77.591405,
              12.9794332
            ],
            [
              77.591404,
              12.9794201
            ],
            [
              77.5913981,
              12.9794085
            ],
            [
              77.591388,
              12.9793999
            ],
            [
              77.5913753,
              12.9793957
            ],
            [
              77.5913619,
              12.9793966
            ],
            [
              77.5913499,
              12.9794024
            ]
          ]
        ]
      }
    },
    {
      "type": "Feature",
      "id": "osm-way-363474996",
      "properties": {
        "id": "osm-way-363474996",
        "water_type": "water",
        "name": null,
        "source": "OpenStreetMap"
      },
      "geometry": {
        "type": "Polygon",
        "coordinates": [
          [
            [
              77.5909586,
              12.9790054
            ],
            [
              77.59095,
              12.9790162
            ],
            [
              77.5909462,
              12.9790294
            ],
            [
              77.590948,
              12.9790429
            ],
            [
              77.5909549,
              12.9790548
            ],
            [
              77.5909659,
              12.9790632
            ],
            [
              77.5909794,
              12.9790668
            ],
            [
              77.5909933,
              12.9790651
            ],
            [
              77.5910055,
              12.9790584
            ],
            [
              77.5910141,
              12.9790476
            ],
            [
              77.5910178,
              12.9790345
            ],
            [
              77.5910161,
              12.9790209
            ],
            [
              77.5910092,
              12.9790091
            ],
            [
              77.5909981,
              12.9790007
            ],
            [
              77.5909846,
              12.978997
            ],
            [
              77.5909707,
              12.9789987
            ],
            [
              77.5909586,
              12.9790054
            ]
          ]
        ]
      }
    },
    {
      "type": "Feature",
      "id": "osm-way-366192439",
      "properties": {
        "id": "osm-way-366192439",
        "water_type": "water",
        "name": null,
        "source": "OpenStreetMap"
      },
      "geometry": {
        "type": "Polygon",
        "coordinates": [
          [
            [
              77.5929294,
              12.9715704
            ],
            [
              77.5934209,
              12.971969
            ],
            [
              77.5934239,
              12.9720196
            ],
            [
              77.5933507,
              12.9720523
            ],
            [
              77.5932225,
              12.9720136
            ],
            [
              77.5928653,
              12.971731
            ],
            [
              77.5928378,
              12.9716626
            ],
            [
              77.5928623,
              12.9716061
            ],
            [
              77.5929294,
              12.9715704
            ]
          ]
        ]
      }
    },
    {
      "type": "Feature",
      "id": "osm-way-408869068",
      "properties": {
        "id": "osm-way-408869068",
        "water_type": "water",
        "name": "K100",
        "source": "OpenStreetMap"
      },
      "geometry": {
        "type": "Polygon",
        "coordinates": [
          [
            [
              77.583097,
              12.9607177
            ],
            [
              77.5831345,
              12.9607648
            ],
            [
              77.5821019,
              12.9614993
            ],
            [
              77.5818928,
              12.961663
            ],
            [
              77.5818015,
              12.9617345
            ],
            [
              77.5814085,
              12.9620064
            ],
            [
              77.5811121,
              12.9622076
            ],
            [
              77.5806669,
              12.9624873
            ],
            [
              77.5806173,
              12.9624494
            ],
            [
              77.5811108,
              12.9621384
            ],
            [
              77.5815131,
              12.961843
            ],
            [
              77.5817787,
              12.9616639
            ],
            [
              77.5822574,
              12.9613372
            ],
            [
              77.5823915,
              12.9612383
            ],
            [
              77.583097,
              12.9607177
            ]
          ]
        ]
      }
    },
    {
      "type": "Feature",
      "id": "osm-way-408869069",
      "properties": {
        "id": "osm-way-408869069",
        "water_type": "water",
        "name": "K100",
        "source": "OpenStreetMap"
      },
      "geometry": {
        "type": "Polygon",
        "coordinates": [
          [
            [
              77.586683,
              12.9591481
            ],
            [
              77.5867421,
              12.9592239
            ],
            [
              77.5859052,
              12.9593938
            ],
            [
              77.5854063,
              12.9595167
            ],
            [
              77.5850485,
              12.9596556
            ],
            [
              77.5850362,
              12.9596604
            ],
            [
              77.5842637,
              12.959995
            ],
            [
              77.5840184,
              12.9601534
            ],
            [
              77.583911,
              12.9602284
            ],
            [
              77.5838744,
              12.9601699
            ],
            [
              77.5841323,
              12.9599872
            ],
            [
              77.5850186,
              12.9595879
            ],
            [
              77.5852695,
              12.9594748
            ],
            [
              77.5855109,
              12.959399
            ],
            [
              77.585814,
              12.9593232
            ],
            [
              77.586683,
              12.9591481
            ]
          ]
        ]
      }
    },
    {
      "type": "Feature",
      "id": "osm-way-408869072",
      "properties": {
        "id": "osm-way-408869072",
        "water_type": "water",
        "name": "K100",
        "source": "OpenStreetMap"
      },
      "geometry": {
        "type": "Polygon",
        "coordinates": [
          [
            [
              77.5838744,
              12.9601699
            ],
            [
              77.583911,
              12.9602284
            ],
            [
              77.5836597,
              12.9604331
            ],
            [
              77.5836469,
              12.9604435
            ],
            [
              77.5831345,
              12.9607648
            ],
            [
              77.583097,
              12.9607177
            ],
            [
              77.5838744,
              12.9601699
            ]
          ]
        ]
      }
    },
    {
      "type": "Feature",
      "id": "osm-way-673640256",
      "properties": {
        "id": "osm-way-673640256",
        "water_type": "water",
        "name": "Karagada Kunte",
        "source": "OpenStreetMap"
      },
      "geometry": {
        "type": "Polygon",
        "coordinates": [
          [
            [
              77.5920273,
              12.9707005
            ],
            [
              77.5923533,
              12.9710371
            ],
            [
              77.5925048,
              12.9711841
            ],
            [
              77.5924981,
              12.9712266
            ],
            [
              77.5924511,
              12.9713116
            ],
            [
              77.5923975,
              12.9713572
            ],
            [
              77.592357,
              12.9713634
            ],
            [
              77.5923365,
              12.9713527
            ],
            [
              77.5923344,
              12.971324
            ],
            [
              77.5923237,
              12.9712985
            ],
            [
              77.5922895,
              12.9712717
            ],
            [
              77.592246,
              12.9712508
            ],
            [
              77.5921514,
              12.9712201
            ],
            [
              77.5920475,
              12.97116
            ],
            [
              77.5918866,
              12.9710546
            ],
            [
              77.5918061,
              12.9710018
            ],
            [
              77.5917973,
              12.9709783
            ],
            [
              77.5917913,
              12.9709312
            ],
            [
              77.5917926,
              12.9708555
            ],
            [
              77.5918006,
              12.9707634
            ],
            [
              77.5918081,
              12.9706738
            ],
            [
              77.591849,
              12.9706189
            ],
            [
              77.5919133,
              12.9706071
            ],
            [
              77.5919482,
              12.970632
            ],
            [
              77.5920273,
              12.9707005
            ]
          ]
        ]
      }
    },
    {
      "type": "Feature",
      "id": "osm-way-1076398556",
      "properties": {
        "id": "osm-way-1076398556",
        "water_type": "water",
        "name": null,
        "source": "OpenStreetMap"
      },
      "geometry": {
        "type": "Polygon",
        "coordinates": [
          [
            [
              77.5906877,
              12.9668037
            ],
            [
              77.5909372,
              12.9668338
            ],
            [
              77.590966,
              12.9666074
            ],
            [
              77.5907165,
              12.9665774
            ],
            [
              77.5906877,
              12.9668037
            ]
          ]
        ]
      }
    },
    {
      "type": "Feature",
      "id": "osm-way-1312433835",
      "properties": {
        "id": "osm-way-1312433835",
        "water_type": "water",
        "name": null,
        "source": "OpenStreetMap"
      },
      "geometry": {
        "type": "Polygon",
        "coordinates": [
          [
            [
              77.5948311,
              12.9815582
            ],
            [
              77.594831,
              12.9815644
            ],
            [
              77.5948289,
              12.9815702
            ],
            [
              77.594825,
              12.981575
            ],
            [
              77.5948196,
              12.9815785
            ],
            [
              77.5948134,
              12.9815801
            ],
            [
              77.5948071,
              12.9815796
            ],
            [
              77.5948012,
              12.9815771
            ],
            [
              77.5947963,
              12.9815728
            ],
            [
              77.5947931,
              12.9815672
            ],
            [
              77.594792,
              12.9815609
            ],
            [
              77.5947931,
              12.9815547
            ],
            [
              77.5947963,
              12.9815491
            ],
            [
              77.5948011,
              12.9815448
            ],
            [
              77.5948071,
              12.9815423
            ],
            [
              77.5948137,
              12.9815418
            ],
            [
              77.59482,
              12.9815436
            ],
            [
              77.5948255,
              12.9815473
            ],
            [
              77.5948292,
              12.9815522
            ],
            [
              77.5948311,
              12.9815582
            ]
          ]
        ]
      }
    },
    {
      "type": "Feature",
      "id": "osm-way-1352263716",
      "properties": {
        "id": "osm-way-1352263716",
        "water_type": "water",
        "name": null,
        "source": "OpenStreetMap"
      },
      "geometry": {
        "type": "Polygon",
        "coordinates": [
          [
            [
              77.5929477,
              12.9813012
            ],
            [
              77.5930004,
              12.9812735
            ],
            [
              77.5929708,
              12.9812198
            ],
            [
              77.592918,
              12.9812475
            ],
            [
              77.5929477,
              12.9813012
            ]
          ]
        ]
      }
    },
    {
      "type": "Feature",
      "id": "osm-way-1352263717",
      "properties": {
        "id": "osm-way-1352263717",
        "water_type": "water",
        "name": null,
        "source": "OpenStreetMap"
      },
      "geometry": {
        "type": "Polygon",
        "coordinates": [
          [
            [
              77.5929673,
              12.9813302
            ],
            [
              77.5930449,
              12.9814708
            ],
            [
              77.5930923,
              12.9814459
            ],
            [
              77.5930147,
              12.9813054
            ],
            [
              77.5929673,
              12.9813302
            ]
          ]
        ]
      }
    },
    {
      "type": "Feature",
      "id": "osm-way-1352263718",
      "properties": {
        "id": "osm-way-1352263718",
        "water_type": "water",
        "name": null,
        "source": "OpenStreetMap"
      },
      "geometry": {
        "type": "Polygon",
        "coordinates": [
          [
            [
              77.5928243,
              12.9810699
            ],
            [
              77.5929019,
              12.9812104
            ],
            [
              77.5929493,
              12.9811855
            ],
            [
              77.5928717,
              12.981045
            ],
            [
              77.5928243,
              12.9810699
            ]
          ]
        ]
      }
    },
    {
      "type": "Feature",
      "id": "osm-way-1368284551",
      "properties": {
        "id": "osm-way-1368284551",
        "water_type": "water",
        "name": null,
        "source": "OpenStreetMap"
      },
      "geometry": {
        "type": "Polygon",
        "coordinates": [
          [
            [
              77.5907375,
              12.9701444
            ],
            [
              77.5909039,
              12.970056
            ],
            [
              77.5909442,
              12.9700346
            ],
            [
              77.5908255,
              12.9698224
            ],
            [
              77.590801,
              12.9698354
            ],
            [
              77.5906188,
              12.9699322
            ],
            [
              77.5907375,
              12.9701444
            ]
          ]
        ]
      }
    },
    {
      "type": "Feature",
      "id": "osm-way-1372985166",
      "properties": {
        "id": "osm-way-1372985166",
        "water_type": "water",
        "name": null,
        "source": "OpenStreetMap"
      },
      "geometry": {
        "type": "Polygon",
        "coordinates": [
          [
            [
              77.5941141,
              12.9759902
            ],
            [
              77.5941516,
              12.9759431
            ],
            [
              77.5941798,
              12.9758856
            ],
            [
              77.5941543,
              12.9758098
            ],
            [
              77.594047,
              12.9756621
            ],
            [
              77.593933,
              12.9755641
            ],
            [
              77.5938677,
              12.975546
            ],
            [
              77.5937909,
              12.9755576
            ],
            [
              77.5937466,
              12.9756373
            ],
            [
              77.593748,
              12.9757327
            ],
            [
              77.5937895,
              12.9758255
            ],
            [
              77.5938821,
              12.9759523
            ],
            [
              77.5939438,
              12.9760294
            ],
            [
              77.5940202,
              12.9760633
            ],
            [
              77.594094,
              12.9760346
            ],
            [
              77.5941141,
              12.9759902
            ]
          ]
        ]
      }
    }
  ]
}